STARLINK-11237 [DTC]    
1 60934U 24155L   26058.16455814 -.00001417  00000+0 -68351-5 0  9996
2 60934  53.1594  32.8154 0001319 137.9845 222.1274 15.69705125 86763
STARLINK-11286 [DTC]    
1 61050U 24164A   26058.21603087 -.00002265  00000+0 -13846-4 0  9999
2 61050  53.1601   2.9190 0000714  94.6942 265.4158 15.69712383 83778
STARLINK-11298 [DTC]    
1 61211U 24171M   26058.17811931 -.00002066  00000+0 -12198-4 0  9998
2 61211  53.1599 228.3784 0001259  89.5394 270.5768 15.69701951 82744
STARLINK-32140          
1 61511U 24183C   26057.51685456  .00000863  00000+0  41260-4 0  9995
2 61511  53.1591 194.2171 0001404 103.5034 256.6123 15.30193921 77946
STARLINK-11322 [DTC]    
1 61542U 24184L   26058.05566068  .00001091  00000+0  13853-4 0  9998
2 61542  53.1631 288.9396 0000453  36.9254 323.1795 15.69714664 79808
STARLINK-32302          
1 61621U 24191A   26058.12465498  .00000382  00000+0  23386-4 0  9991
2 61621  42.9996 213.9098 0001154 264.3168  95.7552 15.27578131 76679
STARLINK-32441          
1 61668U 24193H   26057.51147404  .00001786  00000+0  72432-4 0  9995
2 61668  53.1604 143.0397 0001030  68.4812 291.6298 15.30191207 74814
STARLINK-32387          
1 61704U 24195T   26057.82393789  .00000334  00000+0  23387-4 0  9994
2 61704  53.1570 205.4165 0001245  89.7209 270.3935 15.30198822 75528
STARLINK-32346          
1 61849U 24202E   26058.02072783 -.00004356  00000+0 -14890-3 0  9992
2 61849  43.0032 287.1955 0000887 223.7538 136.3243 15.27576795 73828
STARLINK-32410          
1 61887U 24204P   26057.75168829  .00000659  00000+0  34394-4 0  9994
2 61887  53.1594 177.8334 0001552 111.9529 248.1637 15.30195212 73429
STARLINK-11407 [DTC]    
1 61939U 24209A   26058.26497012  .00201004  00000+0  16259-2 0  9998
2 61939  53.1569  62.4293 0001668  45.2669 314.8484 15.69682614 75101
STARLINK-32450          
1 61969U 24210L   26058.17115902  .00022671  00000+0  83086-3 0  9992
2 61969  42.9945 232.1048 0000557 287.6613  72.4178 15.27578237 73259
STARLINK-32504          
1 62024U 24213S   26058.15638157  .00047168  00000+0  15922-2 0  9999
2 62024  53.1610 216.9453 0001585  78.5062 281.6117 15.30249429 71541
STARLINK-11473 [DTC]    
1 62060U 24217D   26058.20625825  .00295076  00000+0  23372-2 0  9998
2 62060  53.1569 123.1838 0000980 104.3249 255.7878 15.69891521 73527
