
    {
      "objectName": "STARLINK-11237 [DTC]",
      "objectId": "2024-155L",
      "noradId": 60934,
      "epochUtc": "2026-02-27T03:56:57.823296",
      "meanMotionRevPerDay": 15.69705125,
      "eccentricity": 0.00013198,
      "inclinationDeg": 53.1594,
      "raanDeg": 32.8154,
      "argPerigeeDeg": 137.9845,
      "meanAnomalyDeg": 222.1274,
      "bstar": -0.000006835129,
      "meanMotionDot": -0.00001417,
      "meanMotionDdot": 0,
      "elementSetNo": 999,
      "revAtEpoch": 8676
    },
    {
      "objectName": "STARLINK-11286 [DTC]",
      "objectId": "2024-164A",
      "noradId": 61050,
      "epochUtc": "2026-02-27T05:11:05.067168",
      "meanMotionRevPerDay": 15.69712383,
      "eccentricity": 0.00007143,
      "inclinationDeg": 53.1601,
      "raanDeg": 2.919,
      "argPerigeeDeg": 94.6942,
      "meanAnomalyDeg": 265.4158,
      "bstar": -0.000013845522,
      "meanMotionDot": -0.00002265,
      "meanMotionDdot": 0,
      "elementSetNo": 999,
      "revAtEpoch": 8377
    },
    {
      "objectName": "STARLINK-11298 [DTC]",
      "objectId": "2024-171M",
      "noradId": 61211,
      "epochUtc": "2026-02-27T04:16:29.508384",
      "meanMotionRevPerDay": 15.69701951,
      "eccentricity": 0.00012596,
      "inclinationDeg": 53.1599,
      "raanDeg": 228.3784,
      "argPerigeeDeg": 89.5394,
      "meanAnomalyDeg": 270.5768,
      "bstar": -0.000012198477,
      "meanMotionDot": -0.00002066,
      "meanMotionDdot": 0,
      "elementSetNo": 999,
      "revAtEpoch": 8274
    },
    {
      "objectName": "STARLINK-32140",
      "objectId": "2024-183C",
      "noradId": 61511,
      "epochUtc": "2026-02-26T12:24:16.233984",
      "meanMotionRevPerDay": 15.30193921,
      "eccentricity": 0.0001404,
      "inclinationDeg": 53.1591,
      "raanDeg": 194.2171,
      "argPerigeeDeg": 103.5034,
      "meanAnomalyDeg": 256.6123,
      "bstar": 0.00004126,
      "meanMotionDot": 0.00000863,
      "meanMotionDdot": 0,
      "elementSetNo": 999,
      "revAtEpoch": 7794
    },
    {
      "objectName": "STARLINK-11322 [DTC]",
      "objectId": "2024-184L",
      "noradId": 61542,
      "epochUtc": "2026-02-27T01:20:09.082752",
      "meanMotionRevPerDay": 15.69714664,
      "eccentricity": 0.00004535,
      "inclinationDeg": 53.1631,
      "raanDeg": 288.9396,
      "argPerigeeDeg": 36.9254,
      "meanAnomalyDeg": 323.1795,
      "bstar": 0.000013853204,
      "meanMotionDot": 0.00001091,
      "meanMotionDdot": 0,
      "elementSetNo": 999,
      "revAtEpoch": 7980
    },
    {
      "objectName": "STARLINK-32302",
      "objectId": "2024-191A",
      "noradId": 61621,
      "epochUtc": "2026-02-27T02:59:30.190272",
      "meanMotionRevPerDay": 15.27578131,
      "eccentricity": 0.00011545,
      "inclinationDeg": 42.9996,
      "raanDeg": 213.9098,
      "argPerigeeDeg": 264.3168,
      "meanAnomalyDeg": 95.7552,
      "bstar": 0.000023385914,
      "meanMotionDot": 0.00000382,
      "meanMotionDdot": 0,
      "elementSetNo": 999,
      "revAtEpoch": 7667
    },
    {
      "objectName": "STARLINK-32441",
      "objectId": "2024-193H",
      "noradId": 61668,
      "epochUtc": "2026-02-26T12:16:31.357056",
      "meanMotionRevPerDay": 15.30191207,
      "eccentricity": 0.000103,
      "inclinationDeg": 53.1604,
      "raanDeg": 143.0397,
      "argPerigeeDeg": 68.4812,
      "meanAnomalyDeg": 291.6298,
      "bstar": 0.000072432,
      "meanMotionDot": 0.00001786,
      "meanMotionDdot": 0,
      "elementSetNo": 999,
      "revAtEpoch": 7481
    },
    {
      "objectName": "STARLINK-32387",
      "objectId": "2024-195T",
      "noradId": 61704,
      "epochUtc": "2026-02-26T19:46:28.233696",
      "meanMotionRevPerDay": 15.30198822,
      "eccentricity": 0.00012452,
      "inclinationDeg": 53.157,
      "raanDeg": 205.4165,
      "argPerigeeDeg": 89.7209,
      "meanAnomalyDeg": 270.3935,
      "bstar": 0.000023387011,
      "meanMotionDot": 0.00000334,
      "meanMotionDdot": 0,
      "elementSetNo": 999,
      "revAtEpoch": 7552
    },
    {
      "objectName": "STARLINK-32346",
      "objectId": "2024-202E",
      "noradId": 61849,
      "epochUtc": "2026-02-27T00:29:50.884512",
      "meanMotionRevPerDay": 15.27576795,
      "eccentricity": 0.00008878,
      "inclinationDeg": 43.0032,
      "raanDeg": 287.1955,
      "argPerigeeDeg": 223.7538,
      "meanAnomalyDeg": 136.3243,
      "bstar": -0.0001488995,
      "meanMotionDot": -0.00004356,
      "meanMotionDdot": 0,
      "elementSetNo": 999,
      "revAtEpoch": 7382
    },
    {
      "objectName": "STARLINK-32410",
      "objectId": "2024-204P",
      "noradId": 61887,
      "epochUtc": "2026-02-26T18:02:25.868256",
      "meanMotionRevPerDay": 15.30195212,
      "eccentricity": 0.00015521,
      "inclinationDeg": 53.1594,
      "raanDeg": 177.8334,
      "argPerigeeDeg": 111.9529,
      "meanAnomalyDeg": 248.1637,
      "bstar": 0.000034394165,
      "meanMotionDot": 0.00000659,
      "meanMotionDdot": 0,
      "elementSetNo": 999,
      "revAtEpoch": 7342
    },
    {
      "objectName": "STARLINK-11407 [DTC]",
      "objectId": "2024-209A",
      "noradId": 61939,
      "epochUtc": "2026-02-27T06:21:33.418368",
      "meanMotionRevPerDay": 15.69682614,
      "eccentricity": 0.00016688,
      "inclinationDeg": 53.1569,
      "raanDeg": 62.4293,
      "argPerigeeDeg": 45.2669,
      "meanAnomalyDeg": 314.8484,
      "bstar": 0.0016259081,
      "meanMotionDot": 0.00201004,
      "meanMotionDdot": 0,
      "elementSetNo": 999,
      "revAtEpoch": 7510
    },
    {
      "objectName": "STARLINK-32450",
      "objectId": "2024-210L",
      "noradId": 61969,
      "epochUtc": "2026-02-27T04:06:28.139328",
      "meanMotionRevPerDay": 15.27578237,
      "eccentricity": 0.00005577,
      "inclinationDeg": 42.9945,
      "raanDeg": 232.1048,
      "argPerigeeDeg": 287.6613,
      "meanAnomalyDeg": 72.4178,
      "bstar": 0.00083086493,
      "meanMotionDot": 0.00022671,
      "meanMotionDdot": 0,
      "elementSetNo": 999,
      "revAtEpoch": 7325
    },
    {
      "objectName": "STARLINK-32504",
      "objectId": "2024-213S",
      "noradId": 62024,
      "epochUtc": "2026-02-27T03:45:11.367648",
      "meanMotionRevPerDay": 15.30249429,
      "eccentricity": 0.0001585,
      "inclinationDeg": 53.161,
      "raanDeg": 216.9453,
      "argPerigeeDeg": 78.5062,
      "meanAnomalyDeg": 281.6117,
      "bstar": 0.0015921564,
      "meanMotionDot": 0.00047168,
      "meanMotionDdot": 0,
      "elementSetNo": 999,
      "revAtEpoch": 7154
    },
    {
      "objectName": "STARLINK-11473 [DTC]",
      "objectId": "2024-217D",
      "noradId": 62060,
      "epochUtc": "2026-02-27T04:57:00.712800",
      "meanMotionRevPerDay": 15.69891521,
      "eccentricity": 0.00009803,
      "inclinationDeg": 53.1569,
      "raanDeg": 123.1838,
      "argPerigeeDeg": 104.3249,
      "meanAnomalyDeg": 255.7878,
      "bstar": 0.002337171,
      "meanMotionDot": 0.00295076,
      "meanMotionDdot": 0,
      "elementSetNo": 999,
      "revAtEpoch": 7352
    }